NORAD_CAT_ID,OBJECT_NAME,OBJECT_TYPE,EPOCH,MEAN_MOTION,ECCENTRICITY,INCLINATION,RA_OF_ASC_NODE,ARG_OF_PERICENTER,MEAN_ANOMALY,BSTAR,MEAN_MOTION_DOT,MEAN_MOTION_DDOT,TLE_LINE0,TLE_LINE1,TLE_LINE2,SEMIMAJOR_AXIS,PERIOD,APOGEE,PERIGEE,DECAYED
52586.0,STARLINK-3910,PAYLOAD,2022-12-05 12:45:18,15.08831789,0.0002155,53.22,61.9529,21.5403,338.5680000000001,0.00010345,1.358e-05,0.0,0 STARLINK-3910,1 52586U 22051BC  22339.53146858  .00001358  00000-0  10345-3 0  9998,2 52586  53.2200  61.9529 0002155  21.5403 338.5680 15.08831789 31917,6917.905,95.438,541.261,538.28,0.0
52586.0,STARLINK-3910,PAYLOAD,2022-12-05 15:56:04,15.08835109,0.000217,53.2197,61.3573,29.4613,330.6501,0.00013937,1.93e-05,0.0,0 STARLINK-3910,1 52586U 22051BC  22339.66394611  .00001930  00000-0  13937-3 0  9990,2 52586  53.2197  61.3573 0002170  29.4613 330.6501 15.08835109 31939,6917.895,95.438,541.262,538.259,0.0
52586.0,STARLINK-3910,PAYLOAD,2022-12-06 06:14:32,15.08846138,0.0002123,53.2215,58.6831,35.1205,324.9926,0.00011647,1.566e-05,0.0,0 STARLINK-3910,1 52586U 22051BC  22340.26009928  .00001566  00000-0  11647-3 0  9993,2 52586  53.2215  58.6831 0002123  35.1205 324.9926 15.08846138 32094,6917.861999999999,95.437,541.195,538.258,0.0
52586.0,STARLINK-3910,PAYLOAD,2022-12-06 12:36:05,15.08839982,0.0002174,53.2214,57.4933,34.6881,325.4253,-2.8495e-05,-7.42e-06,0.0,0 STARLINK-3910,1 52586U 22051BC  22340.52506753 -.00000742  00000-0 -28495-4 0  9997,2 52586  53.2214  57.4933 0002174  34.6881 325.4253 15.08839982 32068,6917.88,95.438,541.249,538.241,0.0
52586.0,STARLINK-3910,PAYLOAD,2022-12-06 14:11:29,15.08836883,0.0002094,53.2219,57.1958,34.9908,325.1221,-3.4235e-05,-8.33e-06,0.0,0 STARLINK-3910,1 52586U 22051BC  22340.59130929 -.00000833  00000-0 -34235-4 0  9992,2 52586  53.2219  57.1958 0002094  34.9908 325.1221 15.08836883 32149,6917.89,95.438,541.2040000000002,538.306,0.0
52586.0,STARLINK-3910,PAYLOAD,2022-12-06 15:46:52,15.08839351,0.0002209,53.2203,56.8983,29.8043,330.3075,-5.1553e-05,-1.109e-05,0.0,0 STARLINK-3910,1 52586U 22051BC  22340.65754820 -.00001109  00000-0 -51553-4 0  9990,2 52586  53.2203  56.8983 0002209  29.8043 330.3075 15.08839351 32088,6917.882,95.438,541.276,538.219,0.0
52586.0,STARLINK-3910,PAYLOAD,2022-12-07 06:05:21,15.08822051,0.0002286,53.2207,54.2226,25.8701,334.2405,-8.806299999999999e-05,-1.689e-05,0.0,0 STARLINK-3910,1 52586U 22051BC  22341.25372410 -.00001689  00000-0 -88063-4 0  9997,2 52586  53.2207  54.2226 0002286  25.8701 334.2405 15.08822051 32243,6917.935,95.439,541.382,538.219,0.0
52586.0,STARLINK-3910,PAYLOAD,2022-12-07 14:02:16,15.08831836,0.0002336,53.2211,52.7356,40.7374,319.3793,6.2713e-06,-1.89e-06,0.0,0 STARLINK-3910,1 52586U 22051BC  22341.58491873 -.00000189  00000-0  62713-5 0  9996,2 52586  53.2211  52.7356 0002336  40.7374 319.3793 15.08831836 32226,6917.905,95.438,541.386,538.154,0.0
52586.0,STARLINK-3910,PAYLOAD,2022-12-07 21:59:11,15.08847359,0.0002347,53.2204,51.2486,36.7042,323.4111,6.885e-05,8.08e-06,0.0,0 STARLINK-3910,1 52586U 22051BC  22341.91610742  .00000808  00000-0  68850-4 0  9995,2 52586  53.2204  51.2486 0002347  36.7042 323.4111 15.08847359 32345,6917.858,95.437,541.347,538.099,0.0
52586.0,STARLINK-3910,PAYLOAD,2022-12-08 12:17:39,15.08845909,0.0002395,53.2208,48.5726,34.5717,325.5431,0.00017287,2.464e-05,0.0,0 STARLINK-3910,1 52586U 22051BC  22342.51226413  .00002464  00000-0  17287-3 0  9997,2 52586  53.2208  48.5726 0002395  34.5717 325.5431 15.08845909 32362,6917.861999999999,95.437,541.384,538.07,0.0
52586.0,STARLINK-3910,PAYLOAD,2022-12-08 21:49:58,15.08837931,0.000221,53.2205,46.7898,33.075,327.038,0.00012472,1.697e-05,0.0,0 STARLINK-3910,1 52586U 22051BC  22342.90970993  .00001697  00000-0  12472-3 0  9997,2 52586  53.2205  46.7898 0002210  33.0750 327.0380 15.08837931 32496,6917.887,95.438,541.281,538.2230000000002,0.0
52586.0,STARLINK-3910,PAYLOAD,2022-12-09 12:08:27,15.08832744,0.000233,53.2201,44.1137,24.8961,335.2143,0.0001424,1.978e-05,0.0,0 STARLINK-3910,1 52586U 22051BC  22343.50587486  .00001978  00000-0  14240-3 0  9992,2 52586  53.2201  44.1137 0002330  24.8961 335.2143 15.08832744 32513,6917.903,95.438,541.379,538.156,0.0
52586.0,STARLINK-3910,PAYLOAD,2022-12-10 10:23:51,15.08839247,0.0002947,53.2205,39.9513,27.9665,332.1485,9.9121e-05,1.289e-05,0.0,0 STARLINK-3910,1 52586U 22051BC  22344.43323094  .00001289  00000-0  99121-4 0  9995,2 52586  53.2205  39.9513 0002947  27.9665 332.1485 15.08839247 32729,6917.8830000000025,95.438,541.786,537.7090000000002,0.0
52586.0,STARLINK-3910,PAYLOAD,2022-12-10 15:10:00,15.08837436,0.000277,53.2198,39.0609,29.2474,330.8673,5.4385e-05,5.77e-06,0.0,0 STARLINK-3910,1 52586U 22051BC  22344.63195299  .00000577  00000-0  54385-4 0  9993,2 52586  53.2198  39.0609 0002770  29.2474 330.8673 15.08837436 32681,6917.888000000001,95.438,541.669,537.837,0.0
52586.0,STARLINK-3910,PAYLOAD,2022-12-11 03:53:06,15.08770074,0.0002003,53.2197,36.6814,332.7673,27.3214,0.0010550999999999,0.00016512,0.0,0 STARLINK-3910,1 52586U 22051BC  22345.16188200  .00016512  00000-0  10551-2 0  9997,2 52586  53.2197  36.6814 0002003 332.7673  27.3214 15.08770074 32833,6918.094,95.442,541.345,538.573,0.0
52586.0,STARLINK-3910,PAYLOAD,2022-12-11 13:25:24,15.088398000000002,0.0002286,53.2206,34.8944,32.5185,327.5948,3.9288e-05,3.37e-06,0.0,0 STARLINK-3910,1 52586U 22051BC  22345.55931096  .00000337  00000-0  39288-4 0  9997,2 52586  53.2206  34.8944 0002286  32.5185 327.5948 15.08839800 32892,6917.880999999999,95.438,541.327,538.165,0.0
52586.0,STARLINK-3910,PAYLOAD,2022-12-12 10:05:25,15.08842713,0.0002261,53.2205,31.0289,33.0862,327.0271,-2.8461e-05,-7.41e-06,0.0,0 STARLINK-3910,1 52586U 22051BC  22346.42043145 -.00000741  00000-0 -28461-4 0  9995,2 52586  53.2205  31.0289 0002261  33.0862 327.0271 15.08842713 32951,6917.871999999999,95.437,541.3009999999998,538.173,0.0
52586.0,STARLINK-3910,PAYLOAD,2022-12-13 03:34:39,15.08839532,0.0002286,53.2204,27.7579,35.5425,324.5719,6.2165e-05,7.01e-06,0.0,0 STARLINK-3910,1 52586U 22051BC  22347.14907136  .00000701  00000-0  62165-4 0  9997,2 52586  53.2204  27.7579 0002286  35.5425 324.5719 15.08839532 33138,6917.882,95.438,541.328,538.165,0.0
52586.0,STARLINK-3910,PAYLOAD,2022-12-13 09:56:12,15.08837953,0.0002345,53.2206,26.5689,36.1867,323.9284,4.9257e-05,4.96e-06,0.0,0 STARLINK-3910,1 52586U 22051BC  22347.41403304  .00000496  00000-0  49257-4 0  9993,2 52586  53.2206  26.5689 0002345  36.1867 323.9284 15.08837953 33104,6917.887,95.438,541.374,538.129,0.0
52586.0,STARLINK-3910,PAYLOAD,2022-12-14 01:50:04,15.08835346,0.0002389,53.2202,23.5963,35.3563,324.7587,2.8187e-05,1.6e-06,0.0,0 STARLINK-3910,1 52586U 22051BC  22348.07643678  .00000160  00000-0  28187-4 0  9993,2 52586  53.2202  23.5963 0002389  35.3563 324.7587 15.08835346 33271,6917.895,95.438,541.4119999999998,538.107,0.0
52586.0,STARLINK-3910,PAYLOAD,2022-12-14 11:22:23,15.08837365,0.0002432,53.2204,21.812,34.5976,325.5174,1.1662e-05,-1.03e-06,0.0,0 STARLINK-3910,1 52586U 22051BC  22348.47387769 -.00000103  00000-0  11662-4 0  9991,2 52586  53.2204  21.8120 0002432  34.5976 325.5174 15.08837365 33260,6917.888000000001,95.438,541.436,538.071,0.0
52586.0,STARLINK-3910,PAYLOAD,2022-12-14 19:19:18,15.0883999,0.0002555,53.2201,20.3248,32.5008,327.6142,5.3534e-05,5.64e-06,0.0,0 STARLINK-3910,1 52586U 22051BC  22348.80507541  .00000564  00000-0  53534-4 0  9994,2 52586  53.2201  20.3248 0002555  32.5008 327.6142 15.08839990 33312,6917.88,95.438,541.513,537.9780000000002,0.0
52586.0,STARLINK-3910,PAYLOAD,2022-12-15 03:16:14,15.08837963,0.0002509,53.2207,18.8381,34.7214,325.3942,3.6814e-05,2.98e-06,0.0,0 STARLINK-3910,1 52586U 22051BC  22349.13627782  .00000298  00000-0  36814-4 0  9997,2 52586  53.2207  18.8381 0002509  34.7214 325.3942 15.08837963 33434,6917.887,95.438,541.487,538.016,0.0
52586.0,STARLINK-3910,PAYLOAD,2022-12-15 11:13:10,15.08832418,0.0002539,53.2199,17.3505,31.2763,328.838,-2.4482e-05,-6.78e-06,0.0,0 STARLINK-3910,1 52586U 22051BC  22349.46748514 -.00000678  00000-0 -24482-4 0  9992,2 52586  53.2199  17.3505 0002539  31.2763 328.8380 15.08832418 33489,6917.904,95.438,541.525,538.012,0.0
52586.0,STARLINK-3910,PAYLOAD,2022-12-15 19:10:06,15.08834554,0.0002544,53.2217,15.8647,34.0442,326.0713,6.7401e-05,7.84e-06,0.0,0 STARLINK-3910,1 52586U 22051BC  22349.79868204  .00000784  00000-0  67401-4 0  9991,2 52586  53.2217  15.8647 0002544  34.0442 326.0713 15.08834554 33462,6917.897,95.438,541.5219999999998,538.002,0.0
52586.0,STARLINK-3910,PAYLOAD,2022-12-16 11:03:57,15.08842798,0.0002474,53.2204,12.8903,32.5798,327.5346,8.093899999999999e-05,1e-05,0.0,0 STARLINK-3910,1 52586U 22051BC  22350.46107746  .00001000  00000-0  80939-4 0  9997,2 52586  53.2204  12.8903 0002474  32.5798 327.5346 15.08842798 33635,6917.871999999999,95.437,541.448,538.025,0.0
52586.0,STARLINK-3910,PAYLOAD,2022-12-16 19:00:53,15.08837315,0.0002522,53.22,11.4029,33.2022,326.9128,1.8644e-05,8e-08,0.0,0 STARLINK-3910,1 52586U 22051BC  22350.79228322  .00000008  00000-0  18644-4 0  9998,2 52586  53.2200  11.4029 0002522  33.2022 326.9128 15.08837315 33682,6917.889,95.438,541.498,538.009,0.0
52586.0,STARLINK-3910,PAYLOAD,2022-12-17 07:43:58,15.08830782,0.0002452,53.2195,9.0241,32.6873,327.427,4.847e-05,4.83e-06,0.0,0 STARLINK-3910,1 52586U 22051BC  22351.32220829  .00000483  00000-0  48470-4 0  9999,2 52586  53.2195   9.0241 0002452  32.6873 327.4270 15.08830782 33699,6917.909000000002,95.438,541.47,538.077,0.0
52586.0,STARLINK-3910,PAYLOAD,2022-12-17 18:51:40,15.08841864,0.0002392,53.2203,6.9425,34.1516,325.963,5.2493e-05,5.47e-06,0.0,0 STARLINK-3910,1 52586U 22051BC  22351.78588287  .00000547  00000-0  52493-4 0  9995,2 52586  53.2203   6.9425 0002392  34.1516 325.9630 15.08841864 33767,6917.875,95.437,541.394,538.085,0.0
